[{"OBJECT_NAME":"OBJECT K","OBJECT_ID":"2025-155K","EPOCH":"2026-03-09T22:07:25.197888","MEAN_MOTION":15.34284916,"ECCENTRICITY":0.00088839,"INCLINATION":97.4419,"RA_OF_ASC_NODE":38.2399,"ARG_OF_PERICENTER":139.4299,"MEAN_ANOMALY":220.7607,"EPHEMERIS_TYPE":0,"CLASSIFICATION_TYPE":"U","NORAD_CAT_ID":64885,"ELEMENT_SET_NO":999,"REV_AT_EPOCH":6566,"BSTAR":0.00076172732,"MEAN_MOTION_DOT":0.00025288,"MEAN_MOTION_DDOT":0},{"OBJECT_NAME":"STARLINK-35949","OBJECT_ID":"2025-271P","EPOCH":"2026-03-09T11:03:24.733152","MEAN_MOTION":15.30187841,"ECCENTRICITY":0.00014626,"INCLINATION":53.1604,"RA_OF_ASC_NODE":140.851,"ARG_OF_PERICENTER":105.6673,"MEAN_ANOMALY":254.4489,"EPHEMERIS_TYPE":0,"CLASSIFICATION_TYPE":"U","NORAD_CAT_ID":66630,"ELEMENT_SET_NO":999,"REV_AT_EPOCH":1753,"BSTAR":0.00086234911,"MEAN_MOTION_DOT":0.00025258,"MEAN_MOTION_DDOT":0}]
